[{"OBJECT_NAME":"YAOGAN-32 A","OBJECT_ID":"2018-077A","EPOCH":"2026-03-09T23:02:56.675616","MEAN_MOTION":14.63036121,"ECCENTRICITY":0.00017694,"INCLINATION":98.1595,"RA_OF_ASC_NODE":98.6551,"ARG_OF_PERICENTER":95.91,"MEAN_ANOMALY":264.2303,"EPHEMERIS_TYPE":0,"CLASSIFICATION_TYPE":"U","NORAD_CAT_ID":43642,"ELEMENT_SET_NO":999,"REV_AT_EPOCH":39533,"BSTAR":0.00019081707,"MEAN_MOTION_DOT":9.32e-6,"MEAN_MOTION_DDOT":0},{"OBJECT_NAME":"CZ-2D R\/B","OBJECT_ID":"2022-115B","EPOCH":"2026-03-09T18:12:21.553056","MEAN_MOTION":14.71713685,"ECCENTRICITY":0.01166618,"INCLINATION":98.4206,"RA_OF_ASC_NODE":141.0162,"ARG_OF_PERICENTER":26.5061,"MEAN_ANOMALY":334.2047,"EPHEMERIS_TYPE":0,"CLASSIFICATION_TYPE":"U","NORAD_CAT_ID":53878,"ELEMENT_SET_NO":999,"REV_AT_EPOCH":18593,"BSTAR":0.0001506272,"MEAN_MOTION_DOT":9.83e-6,"MEAN_MOTION_DDOT":0}]
